SIRION PATHFINDER-2     
1 43759U 18099B   26130.38611376  .00002736  00000+0  15324-3 0  9997
2 43759  97.4283 180.3465 0010403  75.4504 284.7881 15.14199849406901
CORVUS BC4              
1 43767U 18099K   26130.07715385  .00003341  00000+0  19708-3 0  9990
2 43767  97.4099 174.1763 0009733 127.2812 232.9308 15.12182147406640
M2 PATHFINDER           
1 45727U 20037E   26130.47150766  .00001955  00000+0  14407-3 0  9993
2 45727  97.8170 321.2812 0010317 281.9002  78.1066 15.04510972319827
NETSAT-4                
1 46504U 20068U   26130.51620251  .00011559  00000+0  26756-3 0  9998
2 46504  97.8624 135.7694 0007675  96.6039 263.6081 15.42614642309968
NETSAT-3                
1 46505U 20068V   26130.49289493  .00012215  00000+0  29437-3 0  9994
2 46505  97.8670 134.0104 0007495 109.5214 250.6841 15.41383956309877
NETSAT-1                
1 46506U 20068W   26130.50099479  .00008285  00000+0  25657-3 0  9992
2 46506  97.8758 128.7838 0006639 128.4883 231.6954 15.33723698309528
NETSAT-2                
1 46507U 20068X   26130.47412270  .00013857  00000+0  30169-3 0  9992
2 46507  97.8638 135.4921 0006126 117.3076 242.8795 15.44402878309912
GREENCUBE (IO-117)      
1 53109U 22080E   26130.52028823 -.00000003  00000+0  00000+0 0  9994
2 53109  70.1439 311.3507 0008874 298.5000  61.4765  6.42583327 89641
SITRO-AIS 5 (KATYS)     
1 57176U 23091L   26130.50458257  .00007252  00000+0  26310-3 0  9999
2 57176  97.5081 194.0680 0010524 229.1531 130.8797 15.28590435158585
SITRO-AIS 6 (CHIRKIN)   
1 57192U 23091AC  26130.46421031  .00003940  00000+0  15957-3 0  9997
2 57192  97.5089 193.3415 0010672 233.1597 126.8663 15.25232479158530
SITRO-AIS 8 (ANOKHIN)   
1 57193U 23091AD  26130.52012918  .00008761  00000+0  29361-3 0  9995
2 57193  97.5076 195.5242 0009835 224.2146 135.8310 15.31119620158683
SITRO-AIS 7 (FARTUSHNIY)
1 57194U 23091AE  26130.45987220  .00003519  00000+0  14408-3 0  9997
2 57194  97.5087 193.1809 0010505 234.3404 125.6856 15.24938817158528
SITRO-AIS 10 (BURDAEV)  
1 57199U 23091AK  26130.50973091  .00011871  00000+0  32789-3 0  9991
2 57199  97.5095 200.1925 0006811 194.5614 165.5434 15.37194232158978
SITRO-AIS 9 (SHCHUKIN)  
1 57201U 23091AM  26130.45959201  .00011353  00000+0  31831-3 0  9998
2 57201  97.5093 199.8996 0007009 195.4292 164.6739 15.36739246158959
SITRO-AIS 12 (SMIRENNIY)
1 57204U 23091AQ  26130.45725328  .00011336  00000+0  31498-3 0  9992
2 57204  97.5106 200.3410 0006814 189.2753 170.8366 15.37022519158978
SITRO-AIS 11 (SHEFFER)  
1 57208U 23091AU  26130.48065169  .00012197  00000+0  33443-3 0  9997
2 57208  97.5104 200.5888 0006749 188.8899 171.2227 15.37415413158996
SITRO-AIS 25            
1 59066U 24039R   26130.51844378  .00003170  00000+0  24715-3 0  9998
2 59066  95.3920 209.2120 0147597  99.7309 262.0622 14.93246952119109
SITRO-AIS 26            
1 59067U 24039S   26130.51475705  .00003183  00000+0  24919-3 0  9993
2 59067  95.3923 209.1146 0147955 100.2797 261.5148 14.93049501119093
SITRO-AIS 27            
1 59068U 24039T   26130.49546459  .00003815  00000+0  29569-3 0  9994
2 59068  95.3918 209.3557 0147039  99.0820 262.7076 14.93457828119112
SITRO-AIS 28            
1 59071U 24039U   26130.54077344  .00003120  00000+0  24221-3 0  9995
2 59071  95.3923 209.4323 0146739  98.7797 263.0078 14.93493068119122
GRBBETA                 
1 60237U 24128C   26130.31969757  .00002518  00000+0  18124-3 0  9998
2 60237  61.9910 349.0929 0045592 126.8271 233.7017 15.06327011100565
OOV-CUBE (TUBSAT-30)    
1 60240U 24128F   26130.32531220  .00001449  00000+0  12150-3 0  9998
2 60240  61.9964 357.5767 0049148 125.4597 235.1096 15.02580188100429
ROBUSTA-3A (MEDITERRAN*)
1 60243U 24128J   26130.15869679  .00005381  00000+0  32497-3 0  9999
2 60243  61.9877 342.6644 0046441 120.5090 240.0602 15.11079543100674
LASARSAT                
1 62391U 24247Q   26129.37883651  .00026150  00000+0  56666-3 0  9996
2 62391  44.9740 119.8729 0004505  90.2978 269.8427 15.44007397 77313
CROCUBE                 
1 62394U 24247T   26130.00143748  .00024854  00000+0  51051-3 0  9999
2 62394  44.9719 114.2849 0004189  97.3886 262.7480 15.45608845 77438
FORESAIL-1 PRIME        
1 66778U 25276DS  26130.17226677  .00002994  00000+0  14906-3 0  9992
2 66778  97.4206 204.1474 0001504 198.3827 161.7353 15.18350873 24636
KNACKSAT-2              
1 67683U 98067XZ  26130.38377494  .00027876  00000+0  38679-3 0  9992
2 67683  51.6283 124.1286 0012604  58.7321 301.4903 15.56732909 14383
