OBJECT_NAME,OBJECT_ID,EPOCH,MEAN_MOTION,ECCENTRICITY,INCLINATION,RA_OF_ASC_NODE,ARG_OF_PERICENTER,MEAN_ANOMALY,EPHEMERIS_TYPE,CLASSIFICATION_TYPE,NORAD_CAT_ID,ELEMENT_SET_NO,REV_AT_EPOCH,BSTAR,MEAN_MOTION_DOT,MEAN_MOTION_DDOT
SIRION PATHFINDER-2,2018-099B,2026-05-10T09:16:00.228864,15.14199849,.0010403,97.4283,180.3465,75.4504,284.7881,0,U,43759,999,40690,.15324E-3,.2736E-4,0
CORVUS BC4,2018-099K,2026-05-10T01:51:06.092640,15.12182147,.00097337,97.4099,174.1763,127.2812,232.9308,0,U,43767,999,40664,.19708227E-3,.3341E-4,0
M2 PATHFINDER,2020-037E,2026-05-10T11:18:58.261824,15.04510972,.0010317,97.8170,321.2812,281.9002,78.1066,0,U,45727,999,31982,.14407E-3,.1955E-4,0
NETSAT-4,2020-068U,2026-05-10T12:23:19.896864,15.42614642,.0007675,97.8624,135.7694,96.6039,263.6081,0,U,46504,999,30996,.26756E-3,.11559E-3,0
NETSAT-3,2020-068V,2026-05-10T11:49:46.121952,15.41383956,.0007495,97.8670,134.0104,109.5214,250.6841,0,U,46505,999,30987,.29437E-3,.12215E-3,0
NETSAT-1,2020-068W,2026-05-10T12:01:25.949856,15.33723698,.0006639,97.8758,128.7838,128.4883,231.6954,0,U,46506,999,30952,.25657E-3,.8285E-4,0
NETSAT-2,2020-068X,2026-05-10T11:22:44.201280,15.44402878,.0006126,97.8638,135.4921,117.3076,242.8795,0,U,46507,999,30991,.30169E-3,.13857E-3,0
GREENCUBE (IO-117),2022-080E,2026-05-10T12:29:12.903072,6.42583327,.0008874,70.1439,311.3507,298.5000,61.4765,0,U,53109,999,8964,0,-.3E-7,0
SITRO-AIS 5 (KATYS),2023-091L,2026-05-10T12:06:35.934048,15.28590435,.0010524,97.5081,194.0680,229.1531,130.8797,0,U,57176,999,15858,.2631E-3,.7252E-4,0
SITRO-AIS 6 (CHIRKIN),2023-091AC,2026-05-10T11:08:27.770784,15.25232479,.0010672,97.5089,193.3415,233.1597,126.8663,0,U,57192,999,15853,.15957E-3,.394E-4,0
SITRO-AIS 8 (ANOKHIN),2023-091AD,2026-05-10T12:28:59.161152,15.31119620,.0009835,97.5076,195.5242,224.2146,135.8310,0,U,57193,999,15868,.29361E-3,.8761E-4,0
SITRO-AIS 7 (FARTUSHNIY),2023-091AE,2026-05-10T11:02:12.958080,15.24938817,.0010505,97.5087,193.1809,234.3404,125.6856,0,U,57194,999,15852,.14408E-3,.3519E-4,0
SITRO-AIS 10 (BURDAEV),2023-091AK,2026-05-10T12:14:00.750624,15.37194232,.0006811,97.5095,200.1925,194.5614,165.5434,0,U,57199,999,15897,.32789E-3,.11871E-3,0
SITRO-AIS 9 (SHCHUKIN),2023-091AM,2026-05-10T11:01:48.749664,15.36739246,.0007009,97.5093,199.8996,195.4292,164.6739,0,U,57201,999,15895,.31831E-3,.11353E-3,0
SITRO-AIS 12 (SMIRENNIY),2023-091AQ,2026-05-10T10:58:26.683392,15.37022519,.0006814,97.5106,200.3410,189.2753,170.8366,0,U,57204,999,15897,.31498E-3,.11336E-3,0
SITRO-AIS 11 (SHEFFER),2023-091AU,2026-05-10T11:32:08.306016,15.37415413,.0006749,97.5104,200.5888,188.8899,171.2227,0,U,57208,999,15899,.33443E-3,.12197E-3,0
SITRO-AIS 25,2024-039R,2026-05-10T12:26:33.542592,14.93246952,.0147597,95.3920,209.2120,99.7309,262.0622,0,U,59066,999,11910,.24715E-3,.317E-4,0
SITRO-AIS 26,2024-039S,2026-05-10T12:21:15.009120,14.93049501,.0147955,95.3923,209.1146,100.2797,261.5148,0,U,59067,999,11909,.24919E-3,.3183E-4,0
SITRO-AIS 27,2024-039T,2026-05-10T11:53:28.140576,14.93457828,.0147039,95.3918,209.3557,99.0820,262.7076,0,U,59068,999,11911,.29569E-3,.3815E-4,0
SITRO-AIS 28,2024-039U,2026-05-10T12:58:42.825216,14.93493068,.0146739,95.3923,209.4323,98.7797,263.0078,0,U,59071,999,11912,.24221E-3,.312E-4,0
GRBBETA,2024-128C,2026-05-10T07:40:21.870048,15.06327011,.0045592,61.9910,349.0929,126.8271,233.7017,0,U,60237,999,10056,.18124E-3,.2518E-4,0
OOV-CUBE (TUBSAT-30),2024-128F,2026-05-10T07:48:26.974080,15.02580188,.0049148,61.9964,357.5767,125.4597,235.1096,0,U,60240,999,10042,.1215E-3,.1449E-4,0
ROBUSTA-3A (MEDITERRANEE),2024-128J,2026-05-10T03:48:31.402656,15.11079543,.00464419,61.9877,342.6644,120.5090,240.0602,0,U,60243,999,10067,.32497184E-3,.5381E-4,0
LASARSAT,2024-247Q,2026-05-09T09:05:31.474464,15.44007397,.00045054,44.9740,119.8729,90.2978,269.8427,0,U,62391,999,7731,.5666619E-3,.2615E-3,0
CROCUBE,2024-247T,2026-05-10T00:02:04.198272,15.45608845,.00041891,44.9719,114.2849,97.3886,262.7480,0,U,62394,999,7743,.51051447E-3,.24854E-3,0
FORESAIL-1 PRIME,2025-276DS,2026-05-10T04:08:03.848928,15.18350873,.00015048,97.4206,204.1474,198.3827,161.7353,0,U,66778,999,2463,.14906036E-3,.2994E-4,0
KNACKSAT-2,1998-067XZ,2026-05-10T09:12:38.154816,15.56732909,.0012604,51.6283,124.1286,58.7321,301.4903,0,U,67683,999,1438,.38679E-3,.27876E-3,0
